OBJECT_NAME,OBJECT_ID,EPOCH,MEAN_MOTION,ECCENTRICITY,INCLINATION,RA_OF_ASC_NODE,ARG_OF_PERICENTER,MEAN_ANOMALY,EPHEMERIS_TYPE,CLASSIFICATION_TYPE,NORAD_CAT_ID,ELEMENT_SET_NO,REV_AT_EPOCH,BSTAR,MEAN_MOTION_DOT,MEAN_MOTION_DDOT
STARLINK-31793,2024-112R,2026-05-30T22:19:12.563328,15.30199031,.0001822,53.1601,56.3037,119.0942,241.0241,0,U,60053,999,11118,-.60718E-4,-.2157E-4,0
STARLINK-31735,2024-112S,2026-05-30T23:35:01.378176,15.30199425,.0001626,53.1621,55.9176,108.2890,251.8288,0,U,60054,999,11119,-.19246E-4,-.929E-5,0
STARLINK-31788,2024-112T,2026-05-30T23:30:28.497600,15.30188703,.0001578,53.1610,55.9017,84.4098,275.7082,0,U,60055,999,11119,-.69994E-5,-.567E-5,0
STARLINK-31825,2024-112U,2026-05-30T23:39:34.945632,15.30166719,.0002045,53.1621,55.9440,89.7154,270.4081,0,U,60056,999,11119,-.18275E-3,-.5763E-4,0
STARLINK-31437,2024-112V,2026-05-31T01:22:46.566624,15.30167044,.0001566,53.1617,55.6842,50.1440,309.9698,0,U,60057,999,11120,-.1104E-3,-.3624E-4,0
STARLINK-11181 [DTC],2024-113A,2026-05-30T12:45:35.068896,15.69728031,.00010432,53.1596,147.8898,113.4201,246.6927,0,U,60059,999,11241,.15511317E-4,.1292E-4,0
STARLINK-11176 [DTC],2024-113B,2026-05-30T23:20:20.226048,15.69705915,.000168,53.1599,145.6596,124.7454,235.3723,0,U,60060,999,11248,-.73813E-5,-.1483E-4,0
STARLINK-11167 [DTC],2024-113C,2026-05-31T03:48:21.770784,15.69679671,.0001345,53.1598,144.6841,94.6019,265.5152,0,U,60061,999,11281,-.19725E-4,-.2974E-4,0
STARLINK-11166 [DTC],2024-113D,2026-05-31T03:41:15.549216,15.69708081,.0001087,53.1562,144.6603,87.7439,272.3704,0,U,60062,999,11251,.56897E-4,.6309E-4,0
STARLINK-11165 [DTC],2024-113E,2026-05-31T03:34:08.009184,15.69629737,.0000802,53.1596,144.6218,84.8672,275.2438,0,U,60063,999,11251,.4654E-4,.5035E-4,0
STARLINK-11169 [DTC],2024-113F,2026-05-31T04:58:48.728352,15.69730168,.000073,53.1592,144.2731,78.8676,281.2424,0,U,60064,999,11252,-.49655E-4,-.6604E-4,0
STARLINK-11102 [DTC],2024-113G,2026-05-31T04:51:44.850816,15.69705314,.0001643,53.1591,144.2404,144.7888,215.3239,0,U,60065,999,11252,.75672E-5,.327E-5,0
STARLINK-11141 [DTC],2024-113H,2026-05-31T04:44:41.775072,15.69700370,.0001048,53.1589,144.2070,111.3839,248.7291,0,U,60066,999,11252,-.10076E-4,-.1808E-4,0
STARLINK-11153 [DTC],2024-113J,2026-05-31T04:37:46.165152,15.69707746,.0000987,53.1589,144.9120,93.8313,266.2818,0,U,60067,999,11251,.17086E-5,-.381E-5,0
STARLINK-11170 [DTC],2024-113K,2026-05-31T04:30:42.831072,15.69694884,.0001056,53.1587,144.8761,102.0711,258.0425,0,U,60068,999,11251,-.19116E-5,-.82E-5,0
STARLINK-11171 [DTC],2024-113L,2026-05-31T04:23:38.499072,15.69712813,.0001362,53.1570,144.8464,67.3953,292.7209,0,U,60069,999,11251,.1535E-3,.1805E-3,0
STARLINK-11186 [DTC],2024-113M,2026-05-31T04:16:34.787424,15.69695406,.0001266,53.1571,144.8140,73.2758,286.8399,0,U,60070,999,11292,-.2369E-4,-.3456E-4,0
STARLINK-11184 [DTC],2024-113N,2026-05-30T09:49:18.823296,15.69711487,.0001141,53.1575,148.5838,101.4849,258.6297,0,U,60071,999,11239,.54044422E-4,.5964E-4,0
STARLINK-32032,2024-113U,2026-05-30T21:37:57.336384,15.34406439,.0001422,53.1606,336.0659,129.9787,230.1341,0,U,60077,999,10983,-.21737E-5,-.45E-5,0
KINEIS-1B,2024-114A,2026-05-31T03:45:47.793888,14.80593518,.0003514,97.9830,175.4247,129.4227,230.7296,0,U,60079,999,10488,.15114E-3,.1107E-4,0
KINEIS-1C,2024-114C,2026-05-31T04:34:19.956000,14.80596605,.0000866,97.9849,175.3029,127.4489,232.6802,0,U,60081,999,10486,.15468E-3,.1134E-4,0
KINEIS-1D,2024-114D,2026-05-31T03:59:34.003392,14.76232445,.0000609,97.9883,171.4872,155.1977,204.9262,0,U,60082,999,10461,.12643E-3,.824E-5,0
KINEIS-1E,2024-114E,2026-05-30T14:24:48.676032,14.80599869,.0001082,97.8952,174.2909,259.1827,100.9263,0,U,60083,999,10478,-.11736E-4,-.142E-5,0
KINEIS-1A,2024-114F,2026-05-31T04:11:14.431776,14.80600754,.0004016,97.8922,174.9651,174.2370,185.8889,0,U,60084,999,10487,.23636E-3,.1762E-4,0
ASTRA 1P (SES-24),2024-115A,2026-05-30T22:27:51.388416,1.00280775,.0001405,0.0678,22.8855,335.0263,246.7063,0,U,60086,999,702,0,.133E-5,0
CATCH-1,2024-116A,2026-05-31T04:33:20.467872,14.84861015,.0003877,28.9946,218.6958,250.1942,109.8234,0,U,60088,999,10513,.25394E-3,.2334E-4,0
SVOM,2024-116B,2026-05-31T04:59:10.267872,14.83502002,.0004984,28.9952,224.8050,222.7351,137.2855,0,U,60089,999,10507,.18101E-3,.1648E-4,0
STARLINK-31441,2024-117A,2026-05-31T00:36:57.525984,15.30198074,.0001094,53.1624,14.5955,102.0153,258.0970,0,U,60091,999,10949,.34252E-4,.655E-5,0
STARLINK-32044,2024-117B,2026-05-31T00:08:05.479872,15.30182672,.0001508,53.1609,14.4727,119.1298,240.9854,0,U,60092,999,10949,.41197E-4,.86E-5,0
STARLINK-31239,2024-117C,2026-05-31T01:24:03.942144,15.30201934,.0001053,53.1614,14.8018,115.8412,244.2697,0,U,60093,999,10949,-.13651E-4,-.763E-5,0
