STARLINK-31793          
1 60053U 24112R   26150.93000652 -.00002157  00000+0 -60718-4 0  9995
2 60053  53.1601  56.3037 0001822 119.0942 241.0241 15.30199031111183
STARLINK-31735          
1 60054U 24112S   26150.98265484 -.00000929  00000+0 -19246-4 0  9992
2 60054  53.1621  55.9176 0001626 108.2890 251.8288 15.30199425111197
STARLINK-31788          
1 60055U 24112T   26150.97949650 -.00000567  00000+0 -69994-5 0  9990
2 60055  53.1610  55.9017 0001578  84.4098 275.7082 15.30188703111195
STARLINK-31825          
1 60056U 24112U   26150.98582113 -.00005763  00000+0 -18275-3 0  9996
2 60056  53.1621  55.9440 0002045  89.7154 270.4081 15.30166719111193
STARLINK-31437          
1 60057U 24112V   26151.05748341 -.00003624  00000+0 -11040-3 0  9990
2 60057  53.1617  55.6842 0001566  50.1440 309.9698 15.30167044111205
STARLINK-11181 [DTC]    
1 60059U 24113A   26150.53165589  .00001292  00000+0  15511-4 0  9997
2 60059  53.1596 147.8898 0001043 113.4201 246.6927 15.69728031112413
STARLINK-11176 [DTC]    
1 60060U 24113B   26150.97245632 -.00001483  00000+0 -73813-5 0  9999
2 60060  53.1599 145.6596 0001680 124.7454 235.3723 15.69705915112483
STARLINK-11167 [DTC]    
1 60061U 24113C   26151.15858531 -.00002974  00000+0 -19725-4 0  9996
2 60061  53.1598 144.6841 0001345  94.6019 265.5152 15.69679671112812
STARLINK-11166 [DTC]    
1 60062U 24113D   26151.15365219  .00006309  00000+0  56897-4 0  9998
2 60062  53.1562 144.6603 0001087  87.7439 272.3704 15.69708081112516
STARLINK-11165 [DTC]    
1 60063U 24113E   26151.14870381  .00005035  00000+0  46540-4 0  9998
2 60063  53.1596 144.6218 0000802  84.8672 275.2438 15.69629737112513
STARLINK-11169 [DTC]    
1 60064U 24113F   26151.20750843 -.00006604  00000+0 -49655-4 0  9991
2 60064  53.1592 144.2731 0000730  78.8676 281.2424 15.69730168112527
STARLINK-11102 [DTC]    
1 60065U 24113G   26151.20260244  .00000327  00000+0  75672-5 0  9996
2 60065  53.1591 144.2404 0001643 144.7888 215.3239 15.69705314112523
STARLINK-11141 [DTC]    
1 60066U 24113H   26151.19770573 -.00001808  00000+0 -10076-4 0  9999
2 60066  53.1589 144.2070 0001048 111.3839 248.7291 15.69700370112520
STARLINK-11153 [DTC]    
1 60067U 24113J   26151.19289543 -.00000381  00000+0  17086-5 0  9995
2 60067  53.1589 144.9120 0000987  93.8313 266.2818 15.69707746112519
STARLINK-11170 [DTC]    
1 60068U 24113K   26151.18799573 -.00000820  00000+0 -19116-5 0  9999
2 60068  53.1587 144.8761 0001056 102.0711 258.0425 15.69694884112512
STARLINK-11171 [DTC]    
1 60069U 24113L   26151.18308448  .00018050  00000+0  15350-3 0  9993
2 60069  53.1570 144.8464 0001362  67.3953 292.7209 15.69712813112514
STARLINK-11186 [DTC]    
1 60070U 24113M   26151.17818041 -.00003456  00000+0 -23690-4 0  9992
2 60070  53.1571 144.8140 0001266  73.2758 286.8399 15.69695406112927
STARLINK-11184 [DTC]    
1 60071U 24113N   26150.40924564  .00005964  00000+0  54044-4 0  9997
2 60071  53.1575 148.5838 0001141 101.4849 258.6297 15.69711487112397
STARLINK-32032          
1 60077U 24113U   26150.90135806 -.00000450  00000+0 -21737-5 0  9992
2 60077  53.1606 336.0659 0001422 129.9787 230.1341 15.34406439109831
KINEIS-1B               
1 60079U 24114A   26151.15680317  .00001107  00000+0  15114-3 0  9993
2 60079  97.9830 175.4247 0003514 129.4227 230.7296 14.80593518104884
KINEIS-1C               
1 60081U 24114C   26151.19050875  .00001134  00000+0  15468-3 0  9992
2 60081  97.9849 175.3029 0000866 127.4489 232.6802 14.80596605104861
KINEIS-1D               
1 60082U 24114D   26151.16636578  .00000824  00000+0  12643-3 0  9997
2 60082  97.9883 171.4872 0000609 155.1977 204.9262 14.76232445104617
KINEIS-1E               
1 60083U 24114E   26150.60056338 -.00000142  00000+0 -11736-4 0  9994
2 60083  97.8952 174.2909 0001082 259.1827 100.9263 14.80599869104786
KINEIS-1A               
1 60084U 24114F   26151.17447259  .00001762  00000+0  23636-3 0  9992
2 60084  97.8922 174.9651 0004016 174.2370 185.8889 14.80600754104877
ASTRA 1P (SES-24)       
1 60086U 24115A   26150.93601144  .00000133  00000+0  00000+0 0  9990
2 60086   0.0678  22.8855 0001405 335.0263 246.7063  1.00280775  7022
CATCH-1                 
1 60088U 24116A   26151.18982023  .00002334  00000+0  25394-3 0  9991
2 60088  28.9946 218.6958 0003877 250.1942 109.8234 14.84861015105134
SVOM                    
1 60089U 24116B   26151.20775773  .00001648  00000+0  18101-3 0  9992
2 60089  28.9952 224.8050 0004984 222.7351 137.2855 14.83502002105077
STARLINK-31441          
1 60091U 24117A   26151.02566581  .00000655  00000+0  34252-4 0  9994
2 60091  53.1624  14.5955 0001094 102.0153 258.0970 15.30198074109496
STARLINK-32044          
1 60092U 24117B   26151.00561898  .00000860  00000+0  41197-4 0  9993
2 60092  53.1609  14.4727 0001508 119.1298 240.9854 15.30182672109493
STARLINK-31239          
1 60093U 24117C   26151.05837896 -.00000763  00000+0 -13651-4 0  9991
2 60093  53.1614  14.8018 0001053 115.8412 244.2697 15.30201934109498
